[
    {
        "Altitude(m)": 607897.6404766913,
        "Argument of Periapsis(deg)": 0.0,
        "Eccentricity": 0.0,
        "Inclination(deg)": 60.0,
        "Latitude(deg)": -14.29308022003196,
        "Longitude(deg)": -53.38122901151328,
        "Mean Anomaly(deg)": -16.363600000000048,
        "RAAN(deg)": 55.00000000000001,
        "Satellite Name": "Test1 263",
        "Satellite Number": 263,
        "Semi-Major Axis(m)": 6980739.136638005,
        "Time(s)": 0
    },
    {
        "Altitude(m)": 607750.8408189964,
        "Argument of Periapsis(deg)": 0.00010418945913296404,
        "Eccentricity": 0.0,
        "Inclination(deg)": 60.0,
        "Latitude(deg)": -13.758921310370898,
        "Longitude(deg)": -53.09416052561263,
        "Mean Anomaly(deg)": -15.74349385453821,
        "RAAN(deg)": 54.999579950860266,
        "Satellite Name": "Test1 263",
        "Satellite Number": 263,
        "Semi-Major Axis(m)": 6980739.136638005,
        "Time(s)": 10
    }
]